NORAD_CAT_ID,OBJECT_NAME,OBJECT_TYPE,EPOCH,MEAN_MOTION,ECCENTRICITY,INCLINATION,RA_OF_ASC_NODE,ARG_OF_PERICENTER,MEAN_ANOMALY,BSTAR,MEAN_MOTION_DOT,MEAN_MOTION_DDOT,TLE_LINE0,TLE_LINE1,TLE_LINE2,SEMIMAJOR_AXIS,PERIOD,APOGEE,PERIGEE,DECAYED
52339.0,STARLINK-3792,PAYLOAD,2022-12-12 18:39:30,15.08852276,0.000299,53.2159,119.4303,55.7945,304.333,3.8188e-05,3.19e-06,0.0,0 STARLINK-3792,1 52339U 22045J   22346.77743101  .00000319  00000-0  38188-4 0  9997,2 52339  53.2159 119.4303 0002990  55.7945 304.3330 15.08852276 37061,6917.843000000003,95.437,541.776,537.639,0.0
52339.0,STARLINK-3792,PAYLOAD,2022-12-13 02:36:25,15.08847111,0.0003322,53.2152,117.9467,49.4035,310.7246,-1.7974e-05,-5.75e-06,0.0,0 STARLINK-3792,1 52339U 22045J   22347.10863420 -.00000575  00000-0 -17974-4 0  9998,2 52339  53.2152 117.9467 0003322  49.4035 310.7246 15.08847111 37113,6917.859,95.437,542.0219999999998,537.4259999999998,0.0
52339.0,STARLINK-3792,PAYLOAD,2022-12-13 10:33:21,15.08847323,0.0003557,53.2144,116.4606,47.4145,312.7147,4.356e-05,4.05e-06,0.0,0 STARLINK-3792,1 52339U 22045J   22347.43983300  .00000405  00000-0  43560-4 0  9994,2 52339  53.2144 116.4606 0003557  47.4145 312.7147 15.08847323 37165,6917.858,95.437,542.184,537.262,0.0
52339.0,STARLINK-3792,PAYLOAD,2022-12-13 18:30:17,15.08838599,0.0003054,53.2154,114.9709,51.1791,308.9474,-6.3401e-05,-1.298e-05,0.0,0 STARLINK-3792,1 52339U 22045J   22347.77103550 -.00001298  00000-0 -63401-4 0  9991,2 52339  53.2154 114.9709 0003054  51.1791 308.9474 15.08838599 37215,6917.885,95.438,541.862,537.637,0.0
52339.0,STARLINK-3792,PAYLOAD,2022-12-14 08:48:45,15.08849312,0.0002957,53.2159,112.2941,53.3382,306.7882,-5.9832e-05,-1.241e-05,0.0,0 STARLINK-3792,1 52339U 22045J   22348.36719004 -.00001241  00000-0 -59832-4 0  9995,2 52339  53.2159 112.2941 0002957  53.3382 306.7882 15.08849312 37304,6917.852,95.437,541.763,537.6709999999998,0.0
52339.0,STARLINK-3792,PAYLOAD,2022-12-14 19:56:27,15.0884622,0.0002936,53.2162,110.2127,47.75100000000001,312.3731,2.339e-05,8.4e-07,0.0,0 STARLINK-3792,1 52339U 22045J   22348.83086914  .00000084  00000-0  23390-4 0  9996,2 52339  53.2162 110.2127 0002936  47.7510 312.3731 15.08846220 37377,6917.861,95.437,541.757,537.695,0.0
52339.0,STARLINK-3792,PAYLOAD,2022-12-15 08:39:32,15.08835348,0.0002817,53.2168,107.8346,48.557,311.5664,8.9099e-05,1.13e-05,0.0,0 STARLINK-3792,1 52339U 22045J   22349.36079378  .00001130  00000-0  89099-4 0  9992,2 52339  53.2168 107.8346 0002817  48.5570 311.5664 15.08835348 37455,6917.895,95.438,541.7080000000002,537.811,0.0
52339.0,STARLINK-3792,PAYLOAD,2022-12-15 13:25:41,15.08840955,0.0002935,53.2165,106.9431,50.59,309.5352,8.708899999999999e-05,1.098e-05,0.0,0 STARLINK-3792,1 52339U 22045J   22349.55951064  .00001098  00000-0  87089-4 0  9994,2 52339  53.2165 106.9431 0002935  50.5900 309.5352 15.08840955 37482,6917.877,95.437,541.773,537.712,0.0
52339.0,STARLINK-3792,PAYLOAD,2022-12-15 15:01:04,15.08843001,0.0002877,53.2167,106.6455,50.8957,309.2291,0.00015175,2.128e-05,0.0,0 STARLINK-3792,1 52339U 22045J   22349.62574792  .00002128  00000-0  15175-3 0  9992,2 52339  53.2167 106.6455 0002877  50.8957 309.2291 15.08843001 37492,6917.871,95.437,541.726,537.746,0.0
52339.0,STARLINK-3792,PAYLOAD,2022-12-15 16:36:27,15.0884072,0.0002958,53.2173,106.3499,54.7885,305.3384,0.00014904,2.084e-05,0.0,0 STARLINK-3792,1 52339U 22045J   22349.69198984  .00002084  00000-0  14904-3 0  9994,2 52339  53.2173 106.3499 0002958  54.7885 305.3384 15.08840720 37504,6917.878000000002,95.438,541.789,537.697,0.0
52339.0,STARLINK-3792,PAYLOAD,2022-12-16 00:33:23,15.08837608,0.0002855,53.216,104.8606,48.4025,311.7211,4.1286e-05,3.69e-06,0.0,0 STARLINK-3792,1 52339U 22045J   22350.02319395  .00000369  00000-0  41286-4 0  9992,2 52339  53.2160 104.8606 0002855  48.4025 311.7211 15.08837608 37551,6917.888000000001,95.438,541.7280000000002,537.778,0.0
52339.0,STARLINK-3792,PAYLOAD,2022-12-16 13:16:28,15.08843351,0.0002751,53.2168,102.482,48.5338,311.589,8.2116e-05,1.019e-05,0.0,0 STARLINK-3792,1 52339U 22045J   22350.55310834  .00001019  00000-0  82116-4 0  9999,2 52339  53.2168 102.4820 0002751  48.5338 311.5890 15.08843351 37636,6917.87,95.437,541.638,537.832,0.0
52339.0,STARLINK-3792,PAYLOAD,2022-12-16 16:27:15,15.08840569,0.000276,53.2166,101.8873,46.6941,313.428,5.5642e-05,5.97e-06,0.0,0 STARLINK-3792,1 52339U 22045J   22350.68559053  .00000597  00000-0  55642-4 0  9995,2 52339  53.2166 101.8873 0002760  46.6941 313.4280 15.08840569 37658,6917.879,95.438,541.653,537.8340000000002,0.0
52339.0,STARLINK-3792,PAYLOAD,2022-12-17 08:21:07,15.0883026,0.000272,53.2161,98.913,50.0405,310.0826,-6.0122e-05,-1.245e-05,0.0,0 STARLINK-3792,1 52339U 22045J   22351.34800134 -.00001245  00000-0 -60122-4 0  9990,2 52339  53.2161  98.9130 0002720  50.0405 310.0826 15.08830260 37752,6917.91,95.438,541.6569999999998,537.893,0.0
52339.0,STARLINK-3792,PAYLOAD,2022-12-17 11:31:53,15.08830362,0.0002731,53.2164,98.3183,50.324,309.7993,-3.4983e-05,-8.45e-06,0.0,0 STARLINK-3792,1 52339U 22045J   22351.48048129 -.00000845  00000-0 -34983-4 0  9994,2 52339  53.2164  98.3183 0002731  50.3240 309.7993 15.08830362 37774,6917.91,95.438,541.664,537.886,0.0
52339.0,STARLINK-3792,PAYLOAD,2022-12-17 14:42:39,15.08833592,0.0002712,53.2178,97.7243,50.1517,309.9714,-3.7801e-05,-8.900000000000001e-06,0.0,0 STARLINK-3792,1 52339U 22045J   22351.61295993 -.00000890  00000-0 -37801-4 0  9994,2 52339  53.2178  97.7243 0002712  50.1517 309.9714 15.08833592 37796,6917.9,95.438,541.641,537.889,0.0
52339.0,STARLINK-3792,PAYLOAD,2022-12-18 00:14:58,15.08840388,0.0002869,53.2178,95.9398,46.6467,313.4764,-3.035e-05,-7.72e-06,0.0,0 STARLINK-3792,1 52339U 22045J   22352.01039642 -.00000772  00000-0 -30350-4 0  9997,2 52339  53.2178  95.9398 0002869  46.6467 313.4764 15.08840388 37857,6917.879,95.438,541.729,537.759,0.0
52339.0,STARLINK-3792,PAYLOAD,2022-12-18 11:22:40,15.08835058,0.0002828,53.2185,93.8583,45.5769,314.5454,-1.5883e-05,-5.41e-06,0.0,0 STARLINK-3792,1 52339U 22045J   22352.47408129 -.00000541  00000-0 -15883-4 0  9995,2 52339  53.2185  93.8583 0002828  45.5769 314.5454 15.08835058 37920,6917.895,95.438,541.717,537.804,0.0
52339.0,STARLINK-3792,PAYLOAD,2022-12-18 12:58:03,15.08832575,0.0002835,53.2184,93.561,47.7599,312.3633,1.4587e-05,-5.6e-07,0.0,0 STARLINK-3792,1 52339U 22045J   22352.54032209 -.00000056  00000-0  14587-4 0  9995,2 52339  53.2184  93.5610 0002835  47.7599 312.3633 15.08832575 37937,6917.903,95.438,541.729,537.807,0.0
52339.0,STARLINK-3792,PAYLOAD,2022-12-18 14:33:26,15.08833609,0.0002779,53.2177,93.2629,45.9357,314.1864,2.6746e-05,1.37e-06,0.0,0 STARLINK-3792,1 52339U 22045J   22352.60656118  .00000137  00000-0  26746-4 0  9992,2 52339  53.2177  93.2629 0002779  45.9357 314.1864 15.08833609 37941,6917.9,95.438,541.687,537.842,0.0
52339.0,STARLINK-3792,PAYLOAD,2022-12-19 06:27:18,15.08831048,0.0002684,53.2183,90.2898,44.7984,315.3224,8.8396e-05,1.118e-05,0.0,0 STARLINK-3792,1 52339U 22045J   22353.26896520  .00001118  00000-0  88396-4 0  9997,2 52339  53.2183  90.2898 0002684  44.7984 315.3224 15.08831048 38041,6917.908,95.438,541.63,537.9159999999998,0.0
52339.0,STARLINK-3792,PAYLOAD,2022-12-19 23:56:31,15.08854193,0.0002727,53.2172,87.0194,43.0507,317.0698,0.00018236,2.616e-05,0.0,0 STARLINK-3792,1 52339U 22045J   22353.99758592  .00002616  00000-0  18236-3 0  9992,2 52339  53.2172  87.0194 0002727  43.0507 317.0698 15.08854193 38155,6917.837,95.437,541.589,537.816,0.0
52339.0,STARLINK-3792,PAYLOAD,2022-12-20 12:39:36,15.08851418,0.0002569,53.217,84.6395,42.8511,317.2681,0.00020614,2.995e-05,0.0,0 STARLINK-3792,1 52339U 22045J   22354.52750460  .00002995  00000-0  20614-3 0  9991,2 52339  53.2170  84.6395 0002569  42.8511 317.2681 15.08851418 38235,6917.845,95.437,541.488,537.933,0.0
52339.0,STARLINK-3792,PAYLOAD,2022-12-20 15:50:22,15.0885389,0.0002738,53.2185,84.0446,44.1218,315.9992,0.00014255,1.982e-05,0.0,0 STARLINK-3792,1 52339U 22045J   22354.65998435  .00001982  00000-0  14255-3 0  9990,2 52339  53.2185  84.0446 0002738  44.1218 315.9992 15.08853890 38257,6917.8380000000025,95.437,541.597,537.809,0.0
52339.0,STARLINK-3792,PAYLOAD,2022-12-21 06:08:52,15.08837992,0.0002685,53.2152,81.3692,40.392,319.7271,-2.0216e-05,-6.1e-06,0.0,0 STARLINK-3792,1 52339U 22045J   22355.25615951 -.00000610  00000-0 -20216-4 0  9990,2 52339  53.2152  81.3692 0002685  40.3920 319.7271 15.08837992 38340,6917.887,95.438,541.609,537.894,0.0
52339.0,STARLINK-3792,PAYLOAD,2022-12-21 12:30:25,15.08834351,0.0002476,53.2172,80.1793,37.6095,322.507,-4.4069e-05,-9.9e-06,0.0,0 STARLINK-3792,1 52339U 22045J   22355.52112284 -.00000990  00000-0 -44069-4 0  9994,2 52339  53.2172  80.1793 0002476  37.6095 322.5070 15.08834351 38380,6917.898,95.438,541.476,538.05,0.0
52339.0,STARLINK-3792,PAYLOAD,2022-12-22 05:59:39,15.08829781,0.0002448,53.2177,76.9093,34.5592,325.5559,-0.00010937,-2.028e-05,0.0,0 STARLINK-3792,1 52339U 22045J   22356.24976851 -.00002028  00000-0 -10937-3 0  9992,2 52339  53.2177  76.9093 0002448  34.5592 325.5559 15.08829781 38496,6917.9119999999975,95.438,541.47,538.0830000000002,0.0
52339.0,STARLINK-3792,PAYLOAD,2022-12-22 12:21:11,15.08838925,0.0002502,53.2176,75.7204,33.2951,326.8198,-1.456e-05,-5.2e-06,0.0,0 STARLINK-3792,1 52339U 22045J   22356.51472117 -.00000520  00000-0 -14560-4 0  9990,2 52339  53.2176  75.7204 0002502  33.2951 326.8198 15.08838925 38530,6917.884,95.438,541.48,538.018,0.0
52339.0,STARLINK-3792,PAYLOAD,2022-12-22 17:07:21,15.08836815,0.0002521,53.217,74.8272,31.2463,328.8679,-4.6727e-05,-1.032e-05,0.0,0 STARLINK-3792,1 52339U 22045J   22356.71344424 -.00001032  00000-0 -46727-4 0  9990,2 52339  53.2170  74.8272 0002521  31.2463 328.8679 15.08836815 38561,6917.89,95.438,541.499,538.011,0.0
